RADUGA 1 [-]            
1 08513U 75123A   22264.72503582  .00000002  00000+0  00000+0 0  9993
2 08513   6.3121 287.2447 0008297 218.2110 180.3128  1.00271751181138
RADUGA 2 [-]            
1 09416U 76092A   22264.88267432 -.00000131  00000+0  00000+0 0  9994
2 09416   6.9749 289.2303 0026082 357.6948 109.2019  1.00298069115660
RADUGA 3 [-]            
1 10159U 77071A   22265.02705649 -.00000301  00000+0  00000+0 0  9991
2 10159   7.5902 291.8247 0009902 235.8360 302.4697  1.00208361163373
RADUGA 4 [-]            
1 10987U 78073A   22264.74146736  .00000134  00000+0  00000+0 0  9990
2 10987   8.2163 295.3425 0007669 355.2688  16.7908  1.00296456105923
RADUGA 5 [-]            
1 11343U 79035A   22264.88834977 -.00000190  00000+0  00000+0 0  9995
2 11343   8.6751 298.1006 0007096 176.3058 290.7129  1.00261304115676
RADUGA 6 [-]            
1 11708U 80016A   22264.87709116 -.00000037  00000+0  00000+0 0  9996
2 11708   9.0355 301.1731 0003637 204.4336 237.5081  1.00341841108487
RADUGA 7 [-]            
1 12003U 80081A   22265.36063869 -.00000209  00000+0  00000+0 0  9991
2 12003   9.2187 303.1176 0010326 258.9528 262.2311  1.00285726109746
RADUGA 8 [-]            
1 12351U 81027A   22264.79819365 -.00000364  00000+0  00000+0 0  9996
2 12351   9.5513 303.7127 0083187 229.7882 223.0636  1.00399380108852
RADUGA 9 [-]            
1 12618U 81069A   22264.77345193  .00000028  00000+0  00000+0 0  9995
2 12618   9.7715 306.6742 0004736 162.8319 228.4813  1.00348258 33664
RADUGA 10 [-]           
1 12897U 81102A   22264.89190230 -.00000191  00000+0  00000+0 0  9997
2 12897   9.8568 307.6513 0006612 182.4157 275.9753  1.00283607103664
RADUGA 11 [-]           
1 13669U 82113A   22265.35415319 -.00000075  00000+0  00000+0 0  9999
2 13669  11.9046 321.3707 0038384 254.2245 132.5637  0.97708524108201
RADUGA 12 [-]           
1 13974U 83028A   22264.87989109 -.00000031  00000+0  00000+0 0  9995
2 13974  11.0032 317.4188 0002900 133.5119 293.7526  1.00286616155701
RADUGA 13 [-]           
1 14307U 83088A   22264.86474483 -.00000168  00000+0  00000+0 0  9996
2 14307  12.1551 322.9194 0014412  46.9363 307.3678  0.98175431105542
RADUGA 14 [-]           
1 14725U 84016A   22264.89190222 -.00000210  00000+0  00000+0 0  9999
2 14725  11.2117 321.1836 0005929 147.9051 299.2935  1.00268393104422
RADUGA 15 [-]           
1 15057U 84063A   22264.68338490 -.00000356  00000+0  00000+0 0  9999
2 15057  11.3347 322.1743 0006652 161.9532 249.3152  1.00299098127427
RADUGA 16 [-]           
1 15946U 85070A   22265.43337394  .00000091  00000+0  00000+0 0  9996
2 15946  11.7982 326.8351 0003110 166.1858 214.3350  1.00295227108547
RADUGA 17 [-]           
1 16250U 85107A   22265.19862653 -.00000211  00000+0  00000+0 0  9995
2 16250  11.9226 328.2257 0015627 182.1571 199.0492  1.00133068138145
RADUGA 18 [-]           
1 16497U 86007A   22264.88387368  .00000032  00000+0  00000+0 0  9998
2 16497  12.7324 330.9408 0076506 166.6061 257.2696  0.98810294132436
RADUGA 19 [-]           
1 17046U 86082A   22264.93495409 -.00000196  00000+0  00000+0 0  9996
2 17046  13.1634 334.8738 0014576 151.4956 208.2985  0.98462112129524
RADUGA 20 [-]           
1 17611U 87028A   22264.82326694 -.00000136  00000+0  00000+0 0  9996
2 17611  15.1799 338.3934 0031525 139.5309 310.3923  0.95961947125222
RADUGA 21 [-]           
1 18631U 87100A   22265.45337903  .00000114  00000+0  00000+0 0  9990
2 18631  13.2515 335.7136 0004329 136.1913 258.9107  1.00299248127409
RADUGA 22 [-]           
1 19596U 88095A   22265.53445812 -.00000367  00000+0  00000+0 0  9994
2 19596  13.2380 340.0096 0008403 142.7181 194.5300  1.00215260108031
RADUGA 23 [-]           
1 19928U 89030A   22264.80108855  .00000107  00000+0  00000+0 0  9996
2 19928  13.3880 341.8352 0023081 163.8700 188.6508  1.00339383121166
RADUGA-1 1 [-]          
1 20083U 89048A   22265.19582140 -.00000036  00000+0  00000+0 0  9997
2 20083  14.1434 344.8967 0023387 117.3411 240.8707  0.98707307117800
RADUGA 24 [-]           
1 20367U 89098A   22264.80370457  .00000044  00000+0  00000+0 0  9998
2 20367  13.9644 344.0938 0002889 141.8337 222.9369  1.00216739119296
RADUGA 25 [-]           
1 20499U 90016A   22264.21662986 -.00000267  00000+0  00000+0 0  9990
2 20499  13.7351 344.7537 0006603 145.7344 235.6117  1.00182481119227
RADUGA 26 [-]           
1 21016U 90112A   22264.87979895 -.00000055  00000+0  00000+0 0  9990
2 21016  14.0511 348.0037 0007980  99.4752 298.5111  1.00319993116582
RADUGA-1 2 [-]          
1 21038U 90116A   22264.80178616  .00000095  00000+0  00000+0 0  9996
2 21038  14.0891 348.0769 0009433 106.3115 243.8152  1.00277906 33656
RADUGA 27 [-]           
1 21132U 91014A   22264.77200479  .00000094  00000+0  00000+0 0  9997
2 21132  14.5988 347.6169 0004645 112.2745 197.4903  1.00289881115628
RADUGA 28 [-]           
1 21821U 91087A   22265.57633637 -.00000254  00000+0  00000+0 0  9996
2 21821  14.3678 351.3390 0008873 129.4300 181.4904  1.00192289112670
RADUGA 29 [-]           
1 22557U 93013A   22264.63777993  .00000120  00000+0  00000+0 0  9995
2 22557  14.5776 355.5235 0007717 118.2749 155.7402  1.00357498107992
RADUGA 30 [-]           
1 22836U 93062A   22264.88079730 -.00000097  00000+0  00000+0 0  9994
2 22836  14.6201 357.4945 0001061  61.4718 333.1591  1.00258825 32325
RADUGA-1 3 [-]          
1 22981U 94008A   22264.78218355 -.00000281  00000+0  00000+0 0  9998
2 22981  14.6991 358.6447 0005094 115.8440 263.2755  1.00237763104804
RADUGA 31 [-]           
1 23010U 94012A   22264.84721376 -.00000009  00000+0  00000+0 0  9994
2 23010  14.6686 358.6422 0006546 101.9527 267.8752  1.00334025104678
RADUGA 32 [-]           
1 23448U 94087A   22264.88278197 -.00000105  00000+0  00000+0 0  9990
2 23448  14.6532   1.3551 0005438 189.2621 202.9615  1.00260887119208
RADUGA-1 4 [-]          
1 25642U 99010A   22264.63777965  .00000119  00000+0  00000+0 0  9993
2 25642  15.2302  12.9309 0001842 207.5628  49.9958  1.00311409 86268
RADUGA-1 5 [-]          
1 26477U 00049A   22264.94428451  .00000113  00000+0  00000+0 0  9995
2 26477  13.1827  17.8079 0005930  74.5685 292.9122  1.00288766 80816
RADUGA-1 6 [-]          
1 26936U 01045A   22264.20959527 -.00000144  00000+0  00000+0 0  9999
2 26936  13.3535  24.1356 0016923 161.8590 206.3981  0.97745283 75264
RADUGA-1 7 [-]          
1 28194U 04010A   22265.54362543 -.00000367  00000+0  00000+0 0  9993
2 28194  12.0800  30.9545 0002502 148.1602 141.3016  1.00229585 67724
RADUGA-1M 1 [-]         
1 32373U 07058A   22264.55482147  .00000042  00000+0  00000+0 0  9994
2 32373   7.1044  63.3739 0003376  44.7711 340.7022  0.99393451 38833
RADUGA-1 8 [-]          
1 34264U 09010A   22265.40433900 -.00000280  00000+0  00000+0 0  9998
2 34264   9.4140  53.3504 0014089   7.3342  34.6262  0.99825270 49558
RADUGA-1M 2 [+]         
1 36358U 10002A   22264.88448907 -.00000190  00000+0  00000+0 0  9991
2 36358   0.0890 114.3961 0000926 194.0908  95.7145  1.00271987 36406
RADUGA-1M 3 [+]         
1 39375U 13062A   22265.15535775  .00000152  00000+0  00000+0 0  9990
2 39375   2.4720  88.6155 0001931 150.7762 212.5905  1.00276489 32454
